BEIJING 1               
1 28890U 05043A   19027.79357233  .00000014  00000-0  11971-4 0  9995
2 28890  97.9568 168.5432 0016650  94.6301 265.6807 14.61246087706526
HJ-1A                   
1 33320U 08041A   19027.81164760  .00000048  00000-0  14023-4 0  9992
2 33320  97.8596  90.0836 0024675 281.6916  78.1521 14.76991658559818
HJ-1B                   
1 33321U 08041B   19027.85058247  .00000080  00000-0  18632-4 0  9995
2 33321  97.8660  91.8470 0033421 298.9630  60.8218 14.77092714559814
YAOGAN 4                
1 33446U 08061A   19027.86620086  .00000093  00000-0  20026-4 0  9996
2 33446  97.6556   2.0759 0016098 179.7715 180.3506 14.76922254547050
DEIMOS-1                
1 35681U 09041A   19027.80003687  .00000109  00000-0  25158-4 0  9993
2 35681  97.8819 274.2484 0000588 159.4606 200.6627 14.71769265509869
UK-DMC 2                
1 35683U 09041C   19027.86026592  .00000043  00000-0  14542-4 0  9993
2 35683  97.7544 251.3697 0001372  81.7706 278.3661 14.71062349509697
RISAT 1                 
1 38248U 12017A   19027.75848131  .00000484  00000-0  33933-4 0  9993
2 38248  97.5707  38.1344 0004418 163.0200 311.2320 15.09715097372170
DMC3-FM1                
1 40715U 15032A   19027.73065974  .00000027  00000-0  11917-4 0  9990
2 40715  97.9854 285.9450 0017387  51.4779 308.7985 14.73683070191025
DMC3-FM2                
1 40716U 15032B   19027.82143968  .00000001  00000-0  78467-5 0  9997
2 40716  97.9869 286.2456 0014651  59.9074 300.3594 14.73692896191046
DMC3-FM3                
1 40717U 15032C   19027.77605198  .00000026  00000-0  11759-4 0  9997
2 40717  97.9863 286.8928 0018143  52.5742 307.7118 14.73682341191038
